OBJECT_NAME,OBJECT_ID,EPOCH,MEAN_MOTION,ECCENTRICITY,INCLINATION,RA_OF_ASC_NODE,ARG_OF_PERICENTER,MEAN_ANOMALY,EPHEMERIS_TYPE,CLASSIFICATION_TYPE,NORAD_CAT_ID,ELEMENT_SET_NO,REV_AT_EPOCH,BSTAR,MEAN_MOTION_DOT,MEAN_MOTION_DDOT
CENTISPACE-1 S4,2022-108B,2026-06-08T12:13:10.699968,14.61920033,.0008096,53.5303,88.7018,317.7084,42.3267,0,U,53758,999,20029,.17242E-3,.68E-5,0
BLUEWALKER-3,2022-111AL,2026-06-08T11:21:30.032928,15.38162424,.0006926,53.2294,74.8772,136.2811,223.8743,0,U,53807,999,20886,.13942E-3,.4927E-4,0
YUNHAI-1 03,2022-115A,2026-06-08T12:39:44.699616,14.32712205,.0006008,98.5539,157.7848,76.0501,284.1350,0,U,53877,999,19427,.13406E-3,.321E-5,0
CENTISPACE-1 S5,2022-126A,2026-06-08T13:02:17.803104,14.63002029,.0014297,54.9988,247.5506,56.4786,303.7572,0,U,54020,999,19577,.20571E-3,.873E-5,0
CENTISPACE-1 S6,2022-126B,2026-06-08T12:46:18.960096,14.62281791,.0016149,54.9991,249.4201,56.1342,304.1186,0,U,54021,999,19573,.16498E-3,.65E-5,0
OTB-3-GAZELLE,2022-127A,2026-06-08T11:01:51.803040,14.42671343,.0012408,98.3940,151.2970,210.1900,149.8576,0,U,54023,999,19310,.60932E-4,.159E-5,0
ASO-S,2022-129A,2026-06-08T12:03:33.472800,14.52057643,.0015585,98.2754,164.7073,117.1431,243.1356,0,U,54029,999,19416,.68709E-4,.234E-5,0
HJ-2E,2022-132A,2026-06-08T13:00:57.459744,15.22185373,.0021633,97.3803,164.0754,44.3705,315.9260,0,U,54035,999,20310,.33777E-3,.7735E-4,0
COSMOS 2561,2022-137A,2026-06-08T12:28:52.732992,15.51481831,.0011561,96.9183,218.8465,64.2586,295.9860,0,U,54109,999,20500,.2093E-3,.12307E-3,0
GONETS-M 23,2022-139A,2026-06-08T11:43:35.090976,12.42890417,.0020628,82.5067,353.7015,239.5427,120.3615,0,U,54150,999,16456,.12987E-3,.28E-6,0
GONETS-M 24,2022-139B,2026-06-08T11:04:51.108096,12.42891034,.0015795,82.4989,352.7840,250.3624,109.5751,0,U,54151,999,16456,.13326E-3,.28E-6,0
GONETS-M 25,2022-139C,2026-06-08T12:41:08.742624,12.42889692,.0019715,82.5048,353.4241,248.7279,111.1695,0,U,54152,999,16457,.69481E-4,.19E-6,0
SKIF-D,2022-139D,2026-06-07T06:19:49.713312,5.00430433,.00074124,89.9524,96.6704,203.7476,156.2650,0,U,54153,999,6361,0,.2E-6,0
MATS,2022-147A,2026-06-08T11:22:35.275296,15.05305329,.0011253,97.6831,161.1090,223.2496,136.7848,0,U,54227,999,19645,.24484E-3,.3444E-4,0
JILIN-1 GAOFEN 03D54,2022-155D,2026-06-08T11:55:02.983584,15.93233971,.0003823,97.6117,311.4800,268.2171,91.8665,0,U,54254,999,19891,.69561E-3,.243549E-2,.24681E-4
EOS-6 (OCEANSAT-3),2022-158A,2026-06-08T12:27:29.782944,14.46995457,.000164,98.3534,257.8284,57.9678,302.1673,0,U,54361,999,18658,.92862E-4,.294E-5,0
DONGPO 09,2022-167D,2026-06-08T13:14:12.115104,15.36140525,.00033,97.6898,330.1750,135.5305,224.6203,0,U,54685,999,19412,.3165E-3,.11063E-3,0
DONGPO 08,2022-167E,2026-06-08T12:24:21.919968,15.33471330,.0007983,97.6861,327.3579,189.7902,170.3185,0,U,54686,999,19399,.31094E-3,.9987E-4,0
2022-167F,2022-167F,2026-06-08T12:42:25.002720,15.89080898,.0001078,97.6126,346.3978,180.7772,179.3498,0,U,54687,999,19545,.61761E-3,.178814E-2,0
DONGPO 10,2022-167H,2026-06-08T12:40:29.872992,15.34275011,.0005999,97.6942,329.3006,134.7194,225.4537,0,U,54689,999,19403,.31509E-3,.10379E-3,0
JILIN-1 GAOFEN 03D48,2022-167P,2026-06-08T12:43:23.166336,15.35033403,.00073,97.6877,328.6778,140.9030,219.2741,0,U,54695,999,19406,.30349E-3,.10241E-3,0
STAR VIBE,2023-001A,2026-06-08T11:27:33.185088,15.42374684,.0006932,97.3172,223.9076,136.7387,223.4406,0,U,55009,999,19088,.2958E-3,.12696E-3,0
BRO-8,2023-001C,2026-06-08T12:28:27.886944,15.48521701,.0006867,97.3214,224.5820,147.0268,213.1412,0,U,55011,999,19086,.57539E-3,.30628E-3,0
CONNECTA T1.2,2023-001D,2026-06-08T03:14:12.628032,15.50023036,.00068381,97.3275,229.6690,128.9233,231.2630,0,U,55012,999,19114,.75195149E-3,.4228E-3,0
BIRKELAND,2023-001G,2026-06-08T12:06:29.524032,15.39921510,.000814,97.3346,227.4532,130.1542,230.0418,0,U,55015,999,19101,.20521E-3,.8091E-4,0
ION SCV-008,2023-001AU,2026-06-08T12:44:54.162816,15.28473272,.001579,97.5701,255.7056,47.7941,312.4636,0,U,55051,999,19001,.21987E-3,.6036E-4,0
ION SCV-007,2023-001BD,2026-06-08T02:57:40.190112,14.77545811,.00125388,97.9009,222.3179,11.9087,348.2418,0,U,55060,999,18491,.78699653E-4,.511E-5,0
HUYGENS,2023-001CN,2026-06-08T12:06:38.028384,15.39927530,.0011163,97.3251,226.6943,112.6784,247.5644,0,U,55093,999,19103,.24606E-3,.9732E-4,0
SHARJAHSAT-1,2023-001CZ,2026-06-08T10:56:23.680896,15.48729025,.0007123,97.3173,228.1029,128.6090,231.5800,0,U,55104,999,19114,.32133E-3,.17161E-3,0
HORUS 1,2023-025A,2026-06-08T13:10:11.371008,15.23511837,.0002114,97.3461,234.3249,127.8805,232.2624,0,U,55690,999,18273,.23922E-3,.5642E-4,0
