CENTISPACE-1 S4         
1 53758U 22108B   26159.50915162  .00000680  00000+0  17242-3 0  9995
2 53758  53.5303  88.7018 0008096 317.7084  42.3267 14.61920033200290
BLUEWALKER-3            
1 53807U 22111AL  26159.47326427  .00004927  00000+0  13942-3 0  9991
2 53807  53.2294  74.8772 0006926 136.2811 223.8743 15.38162424208869
YUNHAI-1 03             
1 53877U 22115A   26159.52760069  .00000321  00000+0  13406-3 0  9991
2 53877  98.5539 157.7848 0006008  76.0501 284.1350 14.32712205194277
CENTISPACE-1 S5         
1 54020U 22126A   26159.54326161  .00000873  00000+0  20571-3 0  9990
2 54020  54.9988 247.5506 0014297  56.4786 303.7572 14.63002029195777
CENTISPACE-1 S6         
1 54021U 22126B   26159.53216389  .00000650  00000+0  16498-3 0  9996
2 54021  54.9991 249.4201 0016149  56.1342 304.1186 14.62281791195734
OTB-3-GAZELLE           
1 54023U 22127A   26159.45962735  .00000159  00000+0  60932-4 0  9990
2 54023  98.3940 151.2970 0012408 210.1900 149.8576 14.42671343193101
ASO-S                   
1 54029U 22129A   26159.50247075  .00000234  00000+0  68709-4 0  9991
2 54029  98.2754 164.7073 0015585 117.1431 243.1356 14.52057643194169
HJ-2E                   
1 54035U 22132A   26159.54233171  .00007735  00000+0  33777-3 0  9997
2 54035  97.3803 164.0754 0021633  44.3705 315.9260 15.22185373203103
COSMOS 2561             
1 54109U 22137A   26159.52005478  .00012307  00000+0  20930-3 0  9997
2 54109  96.9183 218.8465 0011561  64.2586 295.9860 15.51481831205009
GONETS-M 23             
1 54150U 22139A   26159.48860059  .00000028  00000+0  12987-3 0  9994
2 54150  82.5067 353.7015 0020628 239.5427 120.3615 12.42890417164567
GONETS-M 24             
1 54151U 22139B   26159.46170264  .00000028  00000+0  13326-3 0  9993
2 54151  82.4989 352.7840 0015795 250.3624 109.5751 12.42891034164560
GONETS-M 25             
1 54152U 22139C   26159.52857341  .00000019  00000+0  69481-4 0  9993
2 54152  82.5048 353.4241 0019715 248.7279 111.1695 12.42889692164578
SKIF-D                  
1 54153U 22139D   26158.26376983  .00000020  00000+0  00000+0 0  9991
2 54153  89.9524  96.6704 0007412 203.7476 156.2650  5.00430433 63615
MATS                    
1 54227U 22147A   26159.47401939  .00003444  00000+0  24484-3 0  9995
2 54227  97.6831 161.1090 0011253 223.2496 136.7848 15.05305329196459
JILIN-1 GAOFEN 03D54    
1 54254U 22155D   26159.49656231  .00243549  24681-4  69561-3 0  9996
2 54254  97.6117 311.4800 0003823 268.2171  91.8665 15.93233971198919
EOS-6 (OCEANSAT-3)      
1 54361U 22158A   26159.51909471  .00000294  00000+0  92862-4 0  9991
2 54361  98.3534 257.8284 0001640  57.9678 302.1673 14.46995457186586
DONGPO 09               
1 54685U 22167D   26159.55152911  .00011063  00000+0  31650-3 0  9996
2 54685  97.6898 330.1750 0003300 135.5305 224.6203 15.36140525194122
DONGPO 08               
1 54686U 22167E   26159.51692037  .00009987  00000+0  31094-3 0  9995
2 54686  97.6861 327.3579 0007983 189.7902 170.3185 15.33471330193993
2022-167F               
1 54687U 22167F   26159.52945605  .00178814  00000+0  61761-3 0  9999
2 54687  97.6126 346.3978 0001078 180.7772 179.3498 15.89080898195452
DONGPO 10               
1 54689U 22167H   26159.52812353  .00010379  00000+0  31509-3 0  9992
2 54689  97.6942 329.3006 0005999 134.7194 225.4537 15.34275011194039
JILIN-1 GAOFEN 03D48    
1 54695U 22167P   26159.53012924  .00010241  00000+0  30349-3 0  9995
2 54695  97.6877 328.6778 0007300 140.9030 219.2741 15.35033403194066
STAR VIBE               
1 55009U 23001A   26159.47746742  .00012696  00000+0  29580-3 0  9999
2 55009  97.3172 223.9076 0006932 136.7387 223.4406 15.42374684190885
BRO-8                   
1 55011U 23001C   26159.51976721  .00030628  00000+0  57539-3 0  9999
2 55011  97.3214 224.5820 0006867 147.0268 213.1412 15.48521701190860
CONNECTA T1.2           
1 55012U 23001D   26159.13486838  .00042280  00000+0  75195-3 0  9998
2 55012  97.3275 229.6690 0006838 128.9233 231.2630 15.50023036191143
BIRKELAND               
1 55015U 23001G   26159.50450838  .00008091  00000+0  20521-3 0  9998
2 55015  97.3346 227.4532 0008140 130.1542 230.0418 15.39921510191010
ION SCV-008             
1 55051U 23001AU  26159.53118244  .00006036  00000+0  21987-3 0  9997
2 55051  97.5701 255.7056 0015790  47.7941 312.4636 15.28473272190018
ION SCV-007             
1 55060U 23001BD  26159.12338183  .00000511  00000+0  78700-4 0  9996
2 55060  97.9009 222.3179 0012538  11.9087 348.2418 14.77545811184919
HUYGENS                 
1 55093U 23001CN  26159.50460681  .00009732  00000+0  24606-3 0  9992
2 55093  97.3251 226.6943 0011163 112.6784 247.5644 15.39927530191034
SHARJAHSAT-1            
1 55104U 23001CZ  26159.45582964  .00017161  00000+0  32133-3 0  9997
2 55104  97.3173 228.1029 0007123 128.6090 231.5800 15.48729025191148
HORUS 1                 
1 55690U 23025A   26159.54874272  .00005642  00000+0  23922-3 0  9996
2 55690  97.3461 234.3249 0002114 127.8805 232.2624 15.23511837182731
